LEMUR-1                 
1 40044U 14033AL  26160.68103503  .00002123  00000+0  24846-3 0  9998
2 40044  97.7869 310.6540 0049761 102.5845 258.0941 14.85216731644350
LEMUR-2-GREENBERG       
1 42837U 17042N   26160.76786198  .00016475  00000+0  54961-3 0  9995
2 42837  97.3821 341.4288 0009263  39.4995 320.6920 15.31101526487258
LEMUR-2-ANDIS           
1 42838U 17042P   26160.74878637  .00021256  00000+0  63563-3 0  9995
2 42838  97.3682 341.5686 0008771  38.8690 321.3182 15.34551135487318
LEMUR-2-MONSON          
1 42839U 17042Q   26160.76061354  .00013802  00000+0  51007-3 0  9996
2 42839  97.4081 341.4050 0006935  32.0094 328.1565 15.27816709487033
LEMUR-2-FURIAUS         
1 42840U 17042R   26160.75639949  .00016245  00000+0  56069-3 0  9995
2 42840  97.3773 339.3896 0008518  91.7984 268.4232 15.30006934487071
LEMUR-2-PETERG          
1 42841U 17042S   26160.79354678  .00022200  00000+0  68452-3 0  9990
2 42841  97.3993 345.8143 0003827  24.7409 335.4017 15.33600748487307
LEMUR-2-DEMBITZ         
1 42842U 17042T   26160.77652958  .00016113  00000+0  55527-3 0  9996
2 42842  97.3826 342.4274 0007358  52.8108 307.3803 15.30070254487213
LEMUR-2-ZACHARY         
1 42845U 17042W   26160.50728247  .00041972  00000+0  75821-3 0  9995
2 42845  97.3612 351.9847 0003451  60.1087 300.0507 15.49598586488011
LEMUR-2-AMANDA-SVANTE   
1 48269U 21034B   26160.72588193  .00028844  00000+0  88118-3 0  9991
2 48269  97.5759 238.8174 0001418 234.3835 125.7275 15.33849586279917
LEMUR-2-SPECIAL-K       
1 48273U 21034F   26160.72493679  .00141525  00000+0  15755-2 0  9998
2 48273  97.5651 247.0546 0003360 233.1813 126.9136 15.62381727280527
LEMUR-2-EMBRIONOVIS     
1 56970U 23084AQ  26160.65194334  .00012052  00000+0  33102-3 0  9995
2 56970  97.6278 304.5642 0008249 349.7300  10.3774 15.37360730166528
LEMUR-2-DEVERILL-M-T    
1 57391U 23100F   26160.63065841  .00024439  00000+0  62620-3 0  9999
2 57391  99.4480 197.2089 0007046  73.9789 286.2226 15.39380363160081
LEMUR-2-BASS            
1 58259U 23174D   26160.68740472  .00015532  00000+0  35570-3 0  9997
2 58259  97.3846 245.2965 0007179 186.8211 173.2940 15.42844811144207
LEMUR-2-JK0903EM1407    
1 58336U 23174CJ  26160.72667053  .00026579  00000+0  45351-3 0  9992
2 58336  97.3913 250.9904 0005980 140.7512 219.4174 15.51297100144570
LEMUR-2-MJR092620       
1 58340U 23174CN  26160.51494107  .00017995  00000+0  38821-3 0  9998
2 58340  97.3967 250.4047 0007067 140.0567 220.1202 15.44592203144461
LEMUR-2-NIMBUS2000      
1 58899U 24022A   26160.54083116  .00015754  00000+0  39924-3 0  9993
2 58899  97.4122  10.4479 0010041 139.3747 220.8250 15.39750905131098
LEMUR-2-VALHALLA        
1 58900U 24022B   26160.53547345  .00014986  00000+0  38373-3 0  9997
2 58900  97.4119  10.4371 0010614 135.6127 224.5971 15.39439378131094
LEMUR-2-OBA-NI-JESU     
1 58902U 24022D   26160.68980145  .01384601  14006-2  12450-2 0  9990
2 58902  97.3696  25.4110 0004893 205.0158 155.0890 16.13079216132127
LEMUR-2-CAEL            
1 58903U 24022E   26160.55172265  .00015786  00000+0  38759-3 0  9994
2 58903  97.4106  11.3760 0009169 119.9042 240.3116 15.40724640131165
LEMUR-2-JOHNNYTRUONG    
1 59146U 24043BA  26160.38942506  .00035674  00000+0  44362-3 0  9996
2 59146  97.5370 311.6139 0004561 200.0811 160.0266 15.59883051126825
LEMUR-2-TOMATOKECHUP    
1 60471U 24149D   26160.68042928  .00009629  00000+0  27810-3 0  9998
2 60471  97.3795 242.7089 0000698 196.6529 163.4692 15.35873885101010
LEMUR-2-STELLA          
1 60533U 24149BT  26160.66837485  .00009777  00000+0  57858-3 0  9994
2 60533  97.6731 243.0915 0001798 100.3083 259.8349 15.11645040 99360
LEMUR-2-MARHISYAM       
1 60536U 24149BW  26160.77842268  .00011249  00000+0  67486-3 0  9999
2 60536  97.6877 243.6433 0003057 132.8579 227.2908 15.11108807 99360
LEMUR-2-AHMED-ASRAR     
1 60576U 24149DN  26160.22423883  .00010250  00000+0  59161-3 0  9993
2 60576  97.7000 245.1488 0002620  62.7817 297.3680 15.12533841 99367
LEMUR-2-LLOYD           
1 60577U 24149DP  26160.68260618  .00009383  00000+0  59557-3 0  9993
2 60577  97.6747 241.8085 0004615 156.6391 203.5048 15.09095459 99267
LEMUR-2-SQUIRRELCOMM    
1 60578U 24149DQ  26160.68654739  .00005605  00000+0  37757-3 0  9996
2 60578  97.6714 241.6221 0006988  82.7792 277.4229 15.07069632 99275
LEMUR-2-SIERRINI        
1 60579U 24149DR  26160.73416139  .00009529  00000+0  57739-3 0  9994
2 60579  97.6834 243.2944 0005239 187.4687 172.6465 15.10787611 99336
LEMUR-2-WILSON          
1 62694U 25009CP  26160.73330892  .00001606  00000+0  15156-3 0  9996
2 62694  97.7022 239.3289 0004463  72.6073 287.5635 14.95133784 76244
LEMUR-2-STAR-FOX        
1 62696U 25009CR  26160.50042489  .00007620  00000+0  57977-3 0  9994
2 62696  97.6946 242.1650 0003036 132.0955 228.0528 15.02389324 76400
