OBJECT_NAME,OBJECT_ID,EPOCH,MEAN_MOTION,ECCENTRICITY,INCLINATION,RA_OF_ASC_NODE,ARG_OF_PERICENTER,MEAN_ANOMALY,EPHEMERIS_TYPE,CLASSIFICATION_TYPE,NORAD_CAT_ID,ELEMENT_SET_NO,REV_AT_EPOCH,BSTAR,MEAN_MOTION_DOT,MEAN_MOTION_DDOT
LEMUR-1,2014-033AL,2026-06-09T16:20:41.426592,14.85216731,.00497618,97.7869,310.6540,102.5845,258.0941,0,U,40044,999,64435,.24845559E-3,.2123E-4,0
LEMUR-2-GREENBERG,2017-042N,2026-06-09T18:25:43.275072,15.31101526,.00092634,97.3821,341.4288,39.4995,320.6920,0,U,42837,999,48725,.54961067E-3,.16475E-3,0
LEMUR-2-ANDIS,2017-042P,2026-06-09T17:58:15.142368,15.34551135,.00087713,97.3682,341.5686,38.8690,321.3182,0,U,42838,999,48731,.63562904E-3,.21256E-3,0
LEMUR-2-MONSON,2017-042Q,2026-06-09T18:15:17.009856,15.27816709,.00069359,97.4081,341.4050,32.0094,328.1565,0,U,42839,999,48703,.51007026E-3,.13802E-3,0
LEMUR-2-FURIAUS,2017-042R,2026-06-09T18:09:12.915936,15.30006934,.00085181,97.3773,339.3896,91.7984,268.4232,0,U,42840,999,48707,.56069414E-3,.16245E-3,0
LEMUR-2-PETERG,2017-042S,2026-06-09T19:02:42.441792,15.33600748,.00038279,97.3993,345.8143,24.7409,335.4017,0,U,42841,999,48730,.68451924E-3,.222E-3,0
LEMUR-2-DEMBITZ,2017-042T,2026-06-09T18:38:12.155712,15.30070254,.00073581,97.3826,342.4274,52.8108,307.3803,0,U,42842,999,48721,.55526588E-3,.16113E-3,0
LEMUR-2-ZACHARY,2017-042W,2026-06-09T12:10:29.205408,15.49598586,.00034519,97.3612,351.9847,60.1087,300.0507,0,U,42845,999,48801,.75821166E-3,.41972E-3,0
LEMUR-2-AMANDA-SVANTE,2021-034B,2026-06-09T17:25:16.198752,15.33849586,.00014182,97.5759,238.8174,234.3835,125.7275,0,U,48269,999,27991,.8811759E-3,.28844E-3,0
LEMUR-2-SPECIAL-K,2021-034F,2026-06-09T17:23:54.538656,15.62381727,.00033605,97.5651,247.0546,233.1813,126.9136,0,U,48273,999,28052,.15754574E-2,.141525E-2,0
LEMUR-2-EMBRIONOVIS,2023-084AQ,2026-06-09T15:38:47.904576,15.37360730,.00082495,97.6278,304.5642,349.7300,10.3774,0,U,56970,999,16652,.33102436E-3,.12052E-3,0
LEMUR-2-DEVERILL-M-T,2023-100F,2026-06-09T15:08:08.886624,15.39380363,.00070468,99.4480,197.2089,73.9789,286.2226,0,U,57391,999,16008,.6262039E-3,.24439E-3,0
LEMUR-2-BASS,2023-174D,2026-06-09T16:29:51.767808,15.42844811,.00071795,97.3846,245.2965,186.8211,173.2940,0,U,58259,999,14420,.35570205E-3,.15532E-3,0
LEMUR-2-JK0903EM1407,2023-174CJ,2026-06-09T17:26:24.333792,15.51297100,.00059809,97.3913,250.9904,140.7512,219.4174,0,U,58336,999,14457,.45350621E-3,.26579E-3,0
LEMUR-2-MJR092620,2023-174CN,2026-06-09T12:21:30.908448,15.44592203,.00070678,97.3967,250.4047,140.0567,220.1202,0,U,58340,999,14446,.38821462E-3,.17995E-3,0
LEMUR-2-NIMBUS2000,2024-022A,2026-06-09T12:58:47.812224,15.39750905,.00100415,97.4122,10.4479,139.3747,220.8250,0,U,58899,999,13109,.3992384E-3,.15754E-3,0
LEMUR-2-VALHALLA,2024-022B,2026-06-09T12:51:04.906080,15.39439378,.00106148,97.4119,10.4371,135.6127,224.5971,0,U,58900,999,13109,.38372786E-3,.14986E-3,0
LEMUR-2-OBA-NI-JESU,2024-022D,2026-06-09T16:33:18.845280,16.13079216,.00048939,97.3696,25.4110,205.0158,155.0890,0,U,58902,999,13212,.12450363E-2,.1384601E-1,.14006467E-2
LEMUR-2-CAEL,2024-022E,2026-06-09T13:14:28.836960,15.40724640,.00091696,97.4106,11.3760,119.9042,240.3116,0,U,58903,999,13116,.38758502E-3,.15786E-3,0
LEMUR-2-JOHNNYTRUONG,2024-043BA,2026-06-09T09:20:46.325184,15.59883051,.00045619,97.5370,311.6139,200.0811,160.0266,0,U,59146,999,12682,.44361859E-3,.35674E-3,0
LEMUR-2-TOMATOKECHUP,2024-149D,2026-06-09T16:19:49.089792,15.35873885,.00006987,97.3795,242.7089,196.6529,163.4692,0,U,60471,999,10101,.27809866E-3,.9629E-4,0
LEMUR-2-STELLA,2024-149BT,2026-06-09T16:02:27.587040,15.11645040,.0001798,97.6731,243.0915,100.3083,259.8349,0,U,60533,999,9936,.57857716E-3,.9777E-4,0
LEMUR-2-MARHISYAM,2024-149BW,2026-06-09T18:40:55.719552,15.11108807,.00030577,97.6877,243.6433,132.8579,227.2908,0,U,60536,999,9936,.67486254E-3,.11249E-3,0
LEMUR-2-AHMED-ASRAR,2024-149DN,2026-06-09T05:22:54.234912,15.12533841,.000262,97.7000,245.1488,62.7817,297.3680,0,U,60576,999,9936,.59161E-3,.1025E-3,0
LEMUR-2-LLOYD,2024-149DP,2026-06-09T16:22:57.173952,15.09095459,.00046155,97.6747,241.8085,156.6391,203.5048,0,U,60577,999,9926,.5955725E-3,.9383E-4,0
LEMUR-2-SQUIRRELCOMM,2024-149DQ,2026-06-09T16:28:37.694496,15.07069632,.00069881,97.6714,241.6221,82.7792,277.4229,0,U,60578,999,9927,.37757204E-3,.5605E-4,0
LEMUR-2-SIERRINI,2024-149DR,2026-06-09T17:37:11.544096,15.10787611,.00052398,97.6834,243.2944,187.4687,172.6465,0,U,60579,999,9933,.57739035E-3,.9529E-4,0
LEMUR-2-WILSON,2025-009CP,2026-06-09T17:35:57.890688,14.95133784,.00044635,97.7022,239.3289,72.6073,287.5635,0,U,62694,999,7624,.15156194E-3,.1606E-4,0
LEMUR-2-STAR-FOX,2025-009CR,2026-06-09T12:00:36.710496,15.02389324,.00030369,97.6946,242.1650,132.0955,228.0528,0,U,62696,999,7640,.57976894E-3,.762E-4,0
